NUSAT-1 (FRESCO)        
1 41557U 16033B   21345.12108978  .00002671  00000+0  92618-4 0  9991
2 41557  97.3934  78.1891 0011497 335.2213 143.6119 15.30656048308547
BEESAT-4                
1 41619U 16040W   21345.10547611  .00002101  00000+0  82355-4 0  9992
2 41619  97.2470  36.1392 0011890  70.2445 290.0075 15.26786359291958
CAS-2T & KS-1Q          
1 41847U 16066G   21345.18258907  .00000090  00000+0  23160-4 0  9992
2 41847  98.5792  44.8394 0365775  52.8081 310.5910 14.38298556267280
NAYIF-1 (EO-88)         
1 42017U 17008BX  21344.62992708  .00003068  00000+0  10945-3 0  9995
2 42017  97.2964  49.0200 0005423 186.0702 174.0474 15.29619480268172
ZHUHAI-1 02 (CAS-4B)    
1 42759U 17034B   21345.13729944  .00000812  00000+0  61513-4 0  9996
2 42759  43.0177 289.4919 0007748 197.9651 283.7117 15.10605707247865
ZHUHAI-1 01 (CAS-4A)    
1 42761U 17034D   21345.12998843  .00000975  00000+0  71012-4 0  9999
2 42761  43.0183 288.4586 0008438 199.7289 346.9384 15.10693911247860
MAX VALIER SAT          
1 42778U 17036P   21345.12771487  .00001409  00000+0  60220-4 0  9994
2 42778  97.2333  27.8011 0009890 273.0001  87.0105 15.24414313248198
RADFXSAT (FOX-1B)       
1 43017U 17073E   21344.95846063  .00000677  00000+0  56280-4 0  9992
2 43017  97.6925 241.8227 0254856  84.2520 278.7687 14.79999073219221
FOX-1D (AO-92)          
1 43137U 18004AC  21344.89365855  .00001600  00000+0  64619-4 0  9990
2 43137  97.3910  57.0528 0007242 316.7175  43.3494 15.26210566217563
DIWATA-2B               
1 43678U 18084H   21345.12811452  .00000583  00000+0  63507-4 0  9998
2 43678  97.9466 111.5748 0009844 179.2365 180.8863 14.91851217169779
ES'HAIL 2               
1 43700U 18090A   21345.13045961  .00000146  00000+0  00000+0 0  9995
2 43700   0.0165  61.1371 0002095 219.5640 232.1292  1.00272967 11388
FOX-1CLIFF (AO-95)      
1 43770U 18099N   21344.89593258  .00000085  00000+0  12779-4 0  9993
2 43770  97.6470  51.0244 0014333 181.8683 178.2487 14.95584841164828
ITASAT 1                
1 43786U 18099AE  21344.91605458  .00000148  00000+0  18310-4 0  9996
2 43786  97.6488  51.8444 0015251 175.4351 184.7012 14.95840553164860
JY1SAT (JO-97)          
1 43803U 18099AX  21345.18248855  .00000261  00000+0  28192-4 0  9995
2 43803  97.6449  51.8422 0015213 174.3203 185.8194 14.96142701164915
UWE-4                   
1 43880U 18111E   21344.71262481  .00000119  00000+0  15281-4 0  9991
2 43880  97.6785 249.3393 0010678 230.3515 129.6765 14.97172150161451
NEXUS (FO-99)           
1 43937U 19003F   21345.14533090  .00001926  00000+0  75006-4 0  9998
2 43937  97.1561  21.1492 0024230 104.3638 256.0293 15.26876476161212
PSAT2 (NO-104)          
1 44354U 19036R   21344.50240945  .00013869  00000+0  16486-3 0  9996
2 44354  28.5272  27.4677 0296530  34.4282 327.5152 15.21222216135737
BRICSAT2 (NO-103)       
1 44355U 19036S   21345.15923165  .00036011 -59647-5  27930-3 0  9999
2 44355  28.5246 301.1693 0199335 174.9364 185.3305 15.47660923136645
JAISAT-1                
1 44419U 19038F   21344.89366399  .00001571  00000+0  88393-4 0  9998
2 44419  97.6129 309.2556 0022310  65.3202 295.0349 15.14556141134490
DUCHIFAT-3              
1 44854U 19089C   21345.10344737  .00000795  00000+0  69298-4 0  9994
2 44854  36.9624 135.7259 0006497 131.1963 228.9336 14.99846612109631
CAS-6 (TO-108)          
1 44881U 19093C   21345.15478715  .00000144  00000+0  25114-4 0  9995
2 44881  97.9121  61.9374 0016487  79.8161 280.4915 14.81520896106891
RS-44 & BREEZE-KM R/B   
1 44909U 19096E   21344.92865160  .00000018  00000+0  23114-4 0  9995
2 44909  82.5213 355.5512 0218146  40.7658 320.9537 12.79711465 91447
ORBITAL FACTORY 2 (OF-2)
1 45113U 19071C   21344.97354684  .00004020  00000+0  11657-3 0  9990
2 45113  51.6411 260.4952 0010764 206.1331 153.9110 15.37875837104319
HUSKYSAT-1 (HO-107)     
1 45119U 19071J   21345.05485085  .00003336  00000+0  98992-4 0  9993
2 45119  51.6406 259.5266 0010341 202.5578 157.4952 15.37729400104328
BY70-2                  
1 45857U 20042B   21345.15394255  .00001757  00000+0  25242-3 0  9993
2 45857  97.9731  59.0216 0010423  11.7880 348.3562 14.77670963 77639
SALSAT                  
1 46495U 20068K   21344.88588899  .00000454  00000+0  37589-4 0  9999
2 46495  97.7098 281.4892 0016413 189.0327 171.0604 15.03709340 65843
BY70-3                  
1 46839U 20079N   21345.16575874  .00004328  00000+0  12767-3 0  9998
2 46839  97.2241  55.5323 0005351 298.2703 120.5516 15.35512246 61309
RADFXSAT-2 (AO-109)     
1 47311U 21002C   21345.13721039  .00000976  00000+0  53071-4 0  9993
2 47311  60.6863 349.4093 0034398 137.1187 223.2592 15.22534070 49775
UVSQ-SAT                
1 47438U 21006AB  21345.11702373  .00001064  00000+0  62627-4 0  9991
2 47438  97.4660  43.0151 0011980 201.2246 158.8490 15.13721337 48774
DIY-1 (ARDUIQUBE)       
1 47963U 21022AH  21344.69057216  .00002734  00000+0  17831-3 0  9994
2 47963  97.5450 243.8792 0020723  63.1030 297.2313 15.08551813 38457
